STARLINK-2022           
1 47643U 21012Z   23284.59433000  .00000678  00000+0  64440-4 0  9995
2 47643  53.0553  42.5179 0001799  98.1011 262.0182 15.06401683147615
